{"type": "FeatureCollection", "features": [ {"type": "Feature", "properties": {"norad_id": 35446, "name": "COSMOS 2251 DEB", "group": "cosmos-2251-debris", "lat": -53.92248860181655, "lon": -87.55402707053359, "alt_km": 732.7465634224636, "timestamp": "2025-12-24T16:52:41.933727+00:00", "meta": {"OBJECT_NAME": "COSMOS 2251 DEB", "OBJECT_ID": "1993-036AKQ", "EPOCH": "2025-12-24T02:17:06.099072", "MEAN_MOTION": 14.54640342, "ECCENTRICITY": 0.00747088, "INCLINATION": 74.0474, "RA_OF_ASC_NODE": 296.7103, "ARG_OF_PERICENTER": 51.6552, "MEAN_ANOMALY": 309.1293, "EPHEMERIS_TYPE": 0, "CLASSIFICATION_TYPE": "U", "NORAD_CAT_ID": 35446, "ELEMENT_SET_NO": 999, "REV_AT_EPOCH": 88173, "BSTAR": 0.00011899718, "MEAN_MOTION_DOT": 4.98e-06, "MEAN_MOTION_DDOT": 0}, "tle": {"line1": "1 35446U 93036AKQ 25358.09520948  .00000498  00000+0  11900-3 0  9997", "line2": "2 35446  74.0474 296.7103 0074708  51.6552 309.1293 14.54640342881735"}}, "geometry": {"type": "Point", "coordinates": [-87.55402707053359, -53.92248860181655]}}, {"type": "Feature", "properties": {"norad_id": 35448, "name": "COSMOS 2251 DEB", "group": "cosmos-2251-debris", "lat": 29.783201460973945, "lon": -122.80244780975235, "alt_km": 711.0166200326794, "timestamp": "2025-12-24T16:52:41.933738+00:00", "meta": {"OBJECT_NAME": "COSMOS 2251 DEB", "OBJECT_ID": "1993-036AKS", "EPOCH": "2025-12-17T15:48:08.057376", "MEAN_MOTION": 14.54306329, "ECCENTRICITY": 0.00121573, "INCLINATION": 73.9037, "RA_OF_ASC_NODE": 80.133, "ARG_OF_PERICENTER": 263.1799, "MEAN_ANOMALY": 96.798, "EPHEMERIS_TYPE": 0, "CLASSIFICATION_TYPE": "U", "NORAD_CAT_ID": 35448, "ELEMENT_SET_NO": 999, "REV_AT_EPOCH": 87406, "BSTAR": 0.00080210225, "MEAN_MOTION_DOT": 3.379e-05, "MEAN_MOTION_DDOT": 0}, "tle": {"line1": "1 35448U 93036AKS 25351.65842659  .00003379  00000+0  80210-3 0  9991", "line2": "2 35448  73.9037  80.1330 0012157 263.1799  96.7980 14.54306329874064"}}, "geometry": {"type": "Point", "coordinates": [-122.80244780975235, 29.783201460973945]}}, {"type": "Feature", "properties": {"norad_id": 35451, "name": "COSMOS 2251 DEB", "group": "cosmos-2251-debris", "lat": 73.59206942243071, "lon": 178.6158644259672, "alt_km": 467.27993496330237, "timestamp": "2025-12-24T16:52:41.933748+00:00", "meta": {"OBJECT_NAME": "COSMOS 2251 DEB", "OBJECT_ID": "1993-036AKV", "EPOCH": "2025-12-22T16:02:09.713472", "MEAN_MOTION": 15.36538479, "ECCENTRICITY": 0.00416089, "INCLINATION": 73.9322, "RA_OF_ASC_NODE": 81.2046, "ARG_OF_PERICENTER": 326.0524, "MEAN_ANOMALY": 33.8019, "EPHEMERIS_TYPE": 0, "CLASSIFICATION_TYPE": "U", "NORAD_CAT_ID": 35451, "ELEMENT_SET_NO": 999, "REV_AT_EPOCH": 67558, "BSTAR": 0.0014760448, "MEAN_MOTION_DOT": 0.00054537, "MEAN_MOTION_DDOT": 0}, "tle": {"line1": "1 35451U 93036AKV 25356.66816798  .00054537  00000+0  14760-2 0  9994", "line2": "2 35451  73.9322  81.2046 0041608 326.0524  33.8019 15.36538479675584"}}, "geometry": {"type": "Point", "coordinates": [178.6158644259672, 73.59206942243071]}}, {"type": "Feature", "properties": {"norad_id": 35453, "name": "COSMOS 2251 DEB", "group": "cosmos-2251-debris", "lat": -39.368814314919284, "lon": -168.08560070819635, "alt_km": 772.3119618387118, "timestamp": "2025-12-24T16:52:41.933760+00:00", "meta": {"OBJECT_NAME": "COSMOS 2251 DEB", "OBJECT_ID": "1993-036AKX", "EPOCH": "2025-12-16T19:11:22.117056", "MEAN_MOTION": 14.38003213, "ECCENTRICITY": 0.00669431, "INCLINATION": 74.0096, "RA_OF_ASC_NODE": 12.8823, "ARG_OF_PERICENTER": 145.8531, "MEAN_ANOMALY": 214.6957, "EPHEMERIS_TYPE": 0, "CLASSIFICATION_TYPE": "U", "NORAD_CAT_ID": 35453, "ELEMENT_SET_NO": 999, "REV_AT_EPOCH": 86277, "BSTAR": 0.00051941791, "MEAN_MOTION_DOT": 1.586e-05, "MEAN_MOTION_DDOT": 0}, "tle": {"line1": "1 35453U 93036AKX 25350.79956154  .00001586  00000+0  51942-3 0  9995", "line2": "2 35453  74.0096  12.8823 0066943 145.8531 214.6957 14.38003213862776"}}, "geometry": {"type": "Point", "coordinates": [-168.08560070819635, -39.368814314919284]}}, {"type": "Feature", "properties": {"norad_id": 35455, "name": "COSMOS 2251 DEB", "group": "cosmos-2251-debris", "lat": -25.227310307279904, "lon": 100.09728796415527, "alt_km": 801.5294368105624, "timestamp": "2025-12-24T16:52:41.933770+00:00", "meta": {"OBJECT_NAME": "COSMOS 2251 DEB", "OBJECT_ID": "1993-036AKZ", "EPOCH": "2025-12-24T01:01:21.838368", "MEAN_MOTION": 14.49527997, "ECCENTRICITY": 0.0099916, "INCLINATION": 74.0282, "RA_OF_ASC_NODE": 273.5823, "ARG_OF_PERICENTER": 14.4921, "MEAN_ANOMALY": 345.9066, "EPHEMERIS_TYPE": 0, "CLASSIFICATION_TYPE": "U", "NORAD_CAT_ID": 35455, "ELEMENT_SET_NO": 999, "REV_AT_EPOCH": 86707, "BSTAR": 0.001441152, "MEAN_MOTION_DOT": 5.866e-05, "MEAN_MOTION_DDOT": 0}, "tle": {"line1": "1 35455U 93036AKZ 25358.04261387  .00005866  00000+0  14412-2 0  9995", "line2": "2 35455  74.0282 273.5823 0099916  14.4921 345.9066 14.49527997867070"}}, "geometry": {"type": "Point", "coordinates": [100.09728796415527, -25.227310307279904]}}, {"type": "Feature", "properties": {"norad_id": 35456, "name": "COSMOS 2251 DEB", "group": "cosmos-2251-debris", "lat": -8.254004567885694, "lon": 91.7822280889065, "alt_km": 635.4144852130812, "timestamp": "2025-12-24T16:52:41.933781+00:00", "meta": {"OBJECT_NAME": "COSMOS 2251 DEB", "OBJECT_ID": "1993-036ALA", "EPOCH": "2025-12-23T00:04:26.032512", "MEAN_MOTION": 14.69618117, "ECCENTRICITY": 0.00667181, "INCLINATION": 73.9512, "RA_OF_ASC_NODE": 97.4858, "ARG_OF_PERICENTER": 305.2899, "MEAN_ANOMALY": 54.2041, "EPHEMERIS_TYPE": 0, "CLASSIFICATION_TYPE": "U", "NORAD_CAT_ID": 35456, "ELEMENT_SET_NO": 999, "REV_AT_EPOCH": 66026, "BSTAR": 0.0018731177, "MEAN_MOTION_DOT": 0.00011509, "MEAN_MOTION_DDOT": 0}, "tle": {"line1": "1 35456U 93036ALA 25357.00307908  .00011509  00000+0  18731-2 0  9990", "line2": "2 35456  73.9512  97.4858 0066718 305.2899  54.2041 14.69618117660267"}}, "geometry": {"type": "Point", "coordinates": [91.7822280889065, -8.254004567885694]}}, {"type": "Feature", "properties": {"norad_id": 35459, "name": "COSMOS 2251 DEB", "group": "cosmos-2251-debris", "lat": 66.86932361618261, "lon": -152.30412303534575, "alt_km": 750.7468778380871, "timestamp": "2025-12-24T16:52:41.933791+00:00", "meta": {"OBJECT_NAME": "COSMOS 2251 DEB", "OBJECT_ID": "1993-036ALD", "EPOCH": "2025-12-21T18:23:18.751200", "MEAN_MOTION": 14.37474606, "ECCENTRICITY": 0.0015969, "INCLINATION": 73.8701, "RA_OF_ASC_NODE": 170.5081, "ARG_OF_PERICENTER": 115.4549, "MEAN_ANOMALY": 244.8258, "EPHEMERIS_TYPE": 0, "CLASSIFICATION_TYPE": "U", "NORAD_CAT_ID": 35459, "ELEMENT_SET_NO": 999, "REV_AT_EPOCH": 58491, "BSTAR": 0.00020108543, "MEAN_MOTION_DOT": 5.75e-06, "MEAN_MOTION_DDOT": 0}, "tle": {"line1": "1 35459U 93036ALD 25355.76618925  .00000575  00000+0  20109-3 0  9992", "line2": "2 35459  73.8701 170.5081 0015969 115.4549 244.8258 14.37474606584917"}}, "geometry": {"type": "Point", "coordinates": [-152.30412303534575, 66.86932361618261]}}, {"type": "Feature", "properties": {"norad_id": 35462, "name": "COSMOS 2251 DEB", "group": "cosmos-2251-debris", "lat": 32.042282260003574, "lon": 56.63953813054219, "alt_km": 833.7520487904212, "timestamp": "2025-12-24T16:52:41.933803+00:00", "meta": {"OBJECT_NAME": "COSMOS 2251 DEB", "OBJECT_ID": "1993-036ALG", "EPOCH": "2025-12-19T10:12:24.458112", "MEAN_MOTION": 14.29342636, "ECCENTRICITY": 0.0086733, "INCLINATION": 74.0371, "RA_OF_ASC_NODE": 256.5417, "ARG_OF_PERICENTER": 290.2864, "MEAN_ANOMALY": 68.8979, "EPHEMERIS_TYPE": 0, "CLASSIFICATION_TYPE": "U", "NORAD_CAT_ID": 35462, "ELEMENT_SET_NO": 999, "REV_AT_EPOCH": 66476, "BSTAR": 0.0010032, "MEAN_MOTION_DOT": 2.635e-05, "MEAN_MOTION_DDOT": 0}, "tle": {"line1": "1 35462U 93036ALG 25353.42528308  .00002635  00000+0  10032-2 0  9994", "line2": "2 35462  74.0371 256.5417 0086733 290.2864  68.8979 14.29342636664768"}}, "geometry": {"type": "Point", "coordinates": [56.63953813054219, 32.042282260003574]}}, {"type": "Feature", "properties": {"norad_id": 35465, "name": "COSMOS 2251 DEB", "group": "cosmos-2251-debris", "lat": 45.72686715022246, "lon": -22.405418947324304, "alt_km": 782.8262876458602, "timestamp": "2025-12-24T16:52:41.933813+00:00", "meta": {"OBJECT_NAME": "COSMOS 2251 DEB", "OBJECT_ID": "1993-036ALK", "EPOCH": "2025-12-23T05:21:40.851936", "MEAN_MOTION": 14.44343886, "ECCENTRICITY": 0.00645011, "INCLINATION": 73.9972, "RA_OF_ASC_NODE": 177.4731, "ARG_OF_PERICENTER": 335.4735, "MEAN_ANOMALY": 24.3357, "EPHEMERIS_TYPE": 0, "CLASSIFICATION_TYPE": "U", "NORAD_CAT_ID": 35465, "ELEMENT_SET_NO": 999, "REV_AT_EPOCH": 87393, "BSTAR": 0.00030952177, "MEAN_MOTION_DOT": 1.064e-05, "MEAN_MOTION_DDOT": 0}, "tle": {"line1": "1 35465U 93036ALK 25357.22338949  .00001064  00000+0  30952-3 0  9998", "line2": "2 35465  73.9972 177.4731 0064501 335.4735  24.3357 14.44343886873937"}}, "geometry": {"type": "Point", "coordinates": [-22.405418947324304, 45.72686715022246]}}, {"type": "Feature", "properties": {"norad_id": 35469, "name": "COSMOS 2251 DEB", "group": "cosmos-2251-debris", "lat": -23.708330725032273, "lon": -171.3871410125362, "alt_km": 696.805366798395, "timestamp": "2025-12-24T16:52:41.933825+00:00", "meta": {"OBJECT_NAME": "COSMOS 2251 DEB", "OBJECT_ID": "1993-036ALP", "EPOCH": "2025-12-23T16:45:28.013760", "MEAN_MOTION": 14.49828285, "ECCENTRICITY": 0.00764244, "INCLINATION": 74.0168, "RA_OF_ASC_NODE": 3.2705, "ARG_OF_PERICENTER": 155.9037, "MEAN_ANOMALY": 204.5731, "EPHEMERIS_TYPE": 0, "CLASSIFICATION_TYPE": "U", "NORAD_CAT_ID": 35469, "ELEMENT_SET_NO": 999, "REV_AT_EPOCH": 88270, "BSTAR": 8.2225084e-05, "MEAN_MOTION_DOT": 3e-06, "MEAN_MOTION_DDOT": 0}, "tle": {"line1": "1 35469U 93036ALP 25357.69824090  .00000300  00000+0  82225-4 0  9993", "line2": "2 35469  74.0168   3.2705 0076424 155.9037 204.5731 14.49828285882703"}}, "geometry": {"type": "Point", "coordinates": [-171.3871410125362, -23.708330725032273]}}]}